COSMOS 1975             
1 19573U 88093A   26143.81149617  .00004994  00000+0  17619-3 0  9998
2 19573  82.5207  42.2121 0009314 265.7027  94.3149 15.28966751 30888
SL-14 R/B               
1 19574U 88093B   26143.81604375  .00000307  00000+0  32416-4 0  9993
2 19574  82.5301 331.5288 0021500 145.9982 226.3751 14.85719679 12177
SL-16 R/B               
1 19650U 88102B   26143.84828836 -.00000016  00000+0  16366-4 0  9996
2 19650  71.0000 353.3535 0016378 257.8589 102.0699 14.16160484937536
INTERCOSMOS 24          
1 20261U 89080A   26143.87051750  .00000431  00000+0  11760-3 0  9990
2 20261  82.6078  55.4615 1188039 118.2881 254.3225 12.59620941676268
SL-14 R/B               
1 20262U 89080C   26143.44350685  .00000409  00000+0  11806-3 0  9999
2 20262  82.5897 125.2018 1230219  13.9845 349.2290 12.50547011669499
DELTA 1 R/B             
1 20323U 89089B   26143.80269988  .00000228  00000+0  65137-4 0  9997
2 20323  97.0647 339.2613 0067429 244.6739 114.7465 14.50712149906620
ARIANE 40 R/B           
1 20443U 90005H   26143.86265836  .00000158  00000+0  63843-4 0  9998
2 20443  98.2971 202.2333 0009587 346.1102  13.9822 14.39912216903625
DELTA 2 R/B(1)          
1 20453U 90008B   26143.72419507  .00046301  00000+0  39533-3 0  9991
2 20453  35.6024  38.8448 0071352 245.1494 114.1813 15.65013393937866
COSMOS 2058             
1 20465U 90010A   26143.78035219  .00001961  00000+0  11290-3 0  9990
2 20465  82.4685 333.4276 0010735  76.9336 283.3092 15.11848697953587
SL-14 R/B               
1 20466U 90010B   26143.61848000  .00000233  00000+0  25187-4 0  9995
2 20466  82.5032 197.0169 0021068  55.7873 304.5335 14.83628968939598
SL-14 R/B               
1 20511U 90018B   26143.77577678  .00000235  00000+0  26465-4 0  9993
2 20511  82.5199 152.9258 0015644 199.6861 160.3752 14.82198204933702
HST                     
1 20580U 90037B   26143.56214552  .00005181  00000+0  16332-3 0  9992
2 20580  28.4737 248.8387 0001366 221.0087 139.0406 15.30462215784791
SL-16 R/B               
1 20625U 90046B   26143.70099367 -.00000282  00000+0 -12067-3 0  9993
2 20625  70.9967 140.3743 0014863 199.7939 160.2609 14.15020610859002
