[
    {
        "OBJECT_NAME": "COSMOS 1975",
        "OBJECT_ID": "1988-093A",
        "EPOCH": "2026-05-23T19:28:33.269088",
        "MEAN_MOTION": 15.28966751,
        "ECCENTRICITY": 0.0009314,
        "INCLINATION": 82.5207,
        "RA_OF_ASC_NODE": 42.2121,
        "ARG_OF_PERICENTER": 265.7027,
        "MEAN_ANOMALY": 94.3149,
        "EPHEMERIS_TYPE": 0,
        "CLASSIFICATION_TYPE": "U",
        "NORAD_CAT_ID": 19573,
        "ELEMENT_SET_NO": 999,
        "REV_AT_EPOCH": 3088,
        "BSTAR": 0.00017619,
        "MEAN_MOTION_DOT": 4.994e-05,
        "MEAN_MOTION_DDOT": 0
    },
    {
        "OBJECT_NAME": "SL-14 R/B",
        "OBJECT_ID": "1988-093B",
        "EPOCH": "2026-05-23T19:35:06.180000",
        "MEAN_MOTION": 14.85719679,
        "ECCENTRICITY": 0.00215,
        "INCLINATION": 82.5301,
        "RA_OF_ASC_NODE": 331.5288,
        "ARG_OF_PERICENTER": 145.9982,
        "MEAN_ANOMALY": 226.3751,
        "EPHEMERIS_TYPE": 0,
        "CLASSIFICATION_TYPE": "U",
        "NORAD_CAT_ID": 19574,
        "ELEMENT_SET_NO": 999,
        "REV_AT_EPOCH": 1217,
        "BSTAR": 3.2416e-05,
        "MEAN_MOTION_DOT": 3.07e-06,
        "MEAN_MOTION_DDOT": 0
    },
    {
        "OBJECT_NAME": "SL-16 R/B",
        "OBJECT_ID": "1988-102B",
        "EPOCH": "2026-05-23T20:21:32.114304",
        "MEAN_MOTION": 14.16160484,
        "ECCENTRICITY": 0.0016378,
        "INCLINATION": 71,
        "RA_OF_ASC_NODE": 353.3535,
        "ARG_OF_PERICENTER": 257.8589,
        "MEAN_ANOMALY": 102.0699,
        "EPHEMERIS_TYPE": 0,
        "CLASSIFICATION_TYPE": "U",
        "NORAD_CAT_ID": 19650,
        "ELEMENT_SET_NO": 999,
        "REV_AT_EPOCH": 93753,
        "BSTAR": 1.6366e-05,
        "MEAN_MOTION_DOT": -1.6e-07,
        "MEAN_MOTION_DDOT": 0
    },
    {
        "OBJECT_NAME": "INTERCOSMOS 24",
        "OBJECT_ID": "1989-080A",
        "EPOCH": "2026-05-23T20:53:32.712000",
        "MEAN_MOTION": 12.59620941,
        "ECCENTRICITY": 0.1188039,
        "INCLINATION": 82.6078,
        "RA_OF_ASC_NODE": 55.4615,
        "ARG_OF_PERICENTER": 118.2881,
        "MEAN_ANOMALY": 254.3225,
        "EPHEMERIS_TYPE": 0,
        "CLASSIFICATION_TYPE": "U",
        "NORAD_CAT_ID": 20261,
        "ELEMENT_SET_NO": 999,
        "REV_AT_EPOCH": 67626,
        "BSTAR": 0.0001176,
        "MEAN_MOTION_DOT": 4.31e-06,
        "MEAN_MOTION_DDOT": 0
    },
    {
        "OBJECT_NAME": "SL-14 R/B",
        "OBJECT_ID": "1989-080C",
        "EPOCH": "2026-05-23T10:38:38.991840",
        "MEAN_MOTION": 12.50547011,
        "ECCENTRICITY": 0.1230219,
        "INCLINATION": 82.5897,
        "RA_OF_ASC_NODE": 125.2018,
        "ARG_OF_PERICENTER": 13.9845,
        "MEAN_ANOMALY": 349.229,
        "EPHEMERIS_TYPE": 0,
        "CLASSIFICATION_TYPE": "U",
        "NORAD_CAT_ID": 20262,
        "ELEMENT_SET_NO": 999,
        "REV_AT_EPOCH": 66949,
        "BSTAR": 0.00011806,
        "MEAN_MOTION_DOT": 4.09e-06,
        "MEAN_MOTION_DDOT": 0
    },
    {
        "OBJECT_NAME": "DELTA 1 R/B",
        "OBJECT_ID": "1989-089B",
        "EPOCH": "2026-05-23T19:15:53.269632",
        "MEAN_MOTION": 14.50712149,
        "ECCENTRICITY": 0.0067429,
        "INCLINATION": 97.0647,
        "RA_OF_ASC_NODE": 339.2613,
        "ARG_OF_PERICENTER": 244.6739,
        "MEAN_ANOMALY": 114.7465,
        "EPHEMERIS_TYPE": 0,
        "CLASSIFICATION_TYPE": "U",
        "NORAD_CAT_ID": 20323,
        "ELEMENT_SET_NO": 999,
        "REV_AT_EPOCH": 90662,
        "BSTAR": 6.5137e-05,
        "MEAN_MOTION_DOT": 2.28e-06,
        "MEAN_MOTION_DDOT": 0
    },
    {
        "OBJECT_NAME": "ARIANE 40 R/B",
        "OBJECT_ID": "1990-005H",
        "EPOCH": "2026-05-23T20:42:13.682304",
        "MEAN_MOTION": 14.39912216,
        "ECCENTRICITY": 0.0009587,
        "INCLINATION": 98.2971,
        "RA_OF_ASC_NODE": 202.2333,
        "ARG_OF_PERICENTER": 346.1102,
        "MEAN_ANOMALY": 13.9822,
        "EPHEMERIS_TYPE": 0,
        "CLASSIFICATION_TYPE": "U",
        "NORAD_CAT_ID": 20443,
        "ELEMENT_SET_NO": 999,
        "REV_AT_EPOCH": 90362,
        "BSTAR": 6.3843e-05,
        "MEAN_MOTION_DOT": 1.58e-06,
        "MEAN_MOTION_DDOT": 0
    },
    {
        "OBJECT_NAME": "DELTA 2 R/B(1)",
        "OBJECT_ID": "1990-008B",
        "EPOCH": "2026-05-23T17:22:50.454048",
        "MEAN_MOTION": 15.65013393,
        "ECCENTRICITY": 0.0071352,
        "INCLINATION": 35.6024,
        "RA_OF_ASC_NODE": 38.8448,
        "ARG_OF_PERICENTER": 245.1494,
        "MEAN_ANOMALY": 114.1813,
        "EPHEMERIS_TYPE": 0,
        "CLASSIFICATION_TYPE": "U",
        "NORAD_CAT_ID": 20453,
        "ELEMENT_SET_NO": 999,
        "REV_AT_EPOCH": 93786,
        "BSTAR": 0.00039533,
        "MEAN_MOTION_DOT": 0.00046301,
        "MEAN_MOTION_DDOT": 0
    },
    {
        "OBJECT_NAME": "COSMOS 2058",
        "OBJECT_ID": "1990-010A",
        "EPOCH": "2026-05-23T18:43:42.429216",
        "MEAN_MOTION": 15.11848697,
        "ECCENTRICITY": 0.0010735,
        "INCLINATION": 82.4685,
        "RA_OF_ASC_NODE": 333.4276,
        "ARG_OF_PERICENTER": 76.9336,
        "MEAN_ANOMALY": 283.3092,
        "EPHEMERIS_TYPE": 0,
        "CLASSIFICATION_TYPE": "U",
        "NORAD_CAT_ID": 20465,
        "ELEMENT_SET_NO": 999,
        "REV_AT_EPOCH": 95358,
        "BSTAR": 0.0001129,
        "MEAN_MOTION_DOT": 1.961e-05,
        "MEAN_MOTION_DDOT": 0
    },
    {
        "OBJECT_NAME": "SL-14 R/B",
        "OBJECT_ID": "1990-010B",
        "EPOCH": "2026-05-23T14:50:36.672000",
        "MEAN_MOTION": 14.83628968,
        "ECCENTRICITY": 0.0021068,
        "INCLINATION": 82.5032,
        "RA_OF_ASC_NODE": 197.0169,
        "ARG_OF_PERICENTER": 55.7873,
        "MEAN_ANOMALY": 304.5335,
        "EPHEMERIS_TYPE": 0,
        "CLASSIFICATION_TYPE": "U",
        "NORAD_CAT_ID": 20466,
        "ELEMENT_SET_NO": 999,
        "REV_AT_EPOCH": 93959,
        "BSTAR": 2.5187e-05,
        "MEAN_MOTION_DOT": 2.33e-06,
        "MEAN_MOTION_DDOT": 0
    },
    {
        "OBJECT_NAME": "SL-14 R/B",
        "OBJECT_ID": "1990-018B",
        "EPOCH": "2026-05-23T18:37:07.113792",
        "MEAN_MOTION": 14.82198204,
        "ECCENTRICITY": 0.0015644,
        "INCLINATION": 82.5199,
        "RA_OF_ASC_NODE": 152.9258,
        "ARG_OF_PERICENTER": 199.6861,
        "MEAN_ANOMALY": 160.3752,
        "EPHEMERIS_TYPE": 0,
        "CLASSIFICATION_TYPE": "U",
        "NORAD_CAT_ID": 20511,
        "ELEMENT_SET_NO": 999,
        "REV_AT_EPOCH": 93370,
        "BSTAR": 2.6465e-05,
        "MEAN_MOTION_DOT": 2.35e-06,
        "MEAN_MOTION_DDOT": 0
    },
    {
        "OBJECT_NAME": "HST",
        "OBJECT_ID": "1990-037B",
        "EPOCH": "2026-05-23T13:29:29.372928",
        "MEAN_MOTION": 15.30462215,
        "ECCENTRICITY": 0.0001366,
        "INCLINATION": 28.4737,
        "RA_OF_ASC_NODE": 248.8387,
        "ARG_OF_PERICENTER": 221.0087,
        "MEAN_ANOMALY": 139.0406,
        "EPHEMERIS_TYPE": 0,
        "CLASSIFICATION_TYPE": "U",
        "NORAD_CAT_ID": 20580,
        "ELEMENT_SET_NO": 999,
        "REV_AT_EPOCH": 78479,
        "BSTAR": 0.00016332,
        "MEAN_MOTION_DOT": 5.181e-05,
        "MEAN_MOTION_DDOT": 0
    },
    {
        "OBJECT_NAME": "SL-16 R/B",
        "OBJECT_ID": "1990-046B",
        "EPOCH": "2026-05-23T16:49:25.853088",
        "MEAN_MOTION": 14.1502061,
        "ECCENTRICITY": 0.0014863,
        "INCLINATION": 70.9967,
        "RA_OF_ASC_NODE": 140.3743,
        "ARG_OF_PERICENTER": 199.7939,
        "MEAN_ANOMALY": 160.2609,
        "EPHEMERIS_TYPE": 0,
        "CLASSIFICATION_TYPE": "U",
        "NORAD_CAT_ID": 20625,
        "ELEMENT_SET_NO": 999,
        "REV_AT_EPOCH": 85900,
        "BSTAR": -0.00012067,
        "MEAN_MOTION_DOT": -2.82e-06,
        "MEAN_MOTION_DDOT": 0
    }
]